OBJECT_NAME,OBJECT_ID,EPOCH,MEAN_MOTION,ECCENTRICITY,INCLINATION,RA_OF_ASC_NODE,ARG_OF_PERICENTER,MEAN_ANOMALY,EPHEMERIS_TYPE,CLASSIFICATION_TYPE,NORAD_CAT_ID,ELEMENT_SET_NO,REV_AT_EPOCH,BSTAR,MEAN_MOTION_DOT,MEAN_MOTION_DDOT
STARLINK-4117,2022-083AP,2022-12-15T04:38:26.000736,15.08835494,.0002141,53.2152,48.5700,39.2782,320.8365,0,U,53169,999,2398,-.2887E-4,-.748E-5,0
STARLINK-4299,2022-083AS,2022-12-15T04:31:48.426816,15.08839576,.0001963,53.2180,58.5900,35.6139,324.4984,0,U,53172,999,2384,.13852E-3,.1917E-4,0
STARLINK-4300,2022-083AT,2022-12-15T03:14:58.066656,15.08826753,.0001476,53.2161,38.8331,62.8022,297.3120,0,U,53173,999,2411,.92219E-4,.118E-4,0
STARLINK-4292,2022-083AV,2022-12-14T15:05:36.725856,15.08832414,.0002102,53.2187,76.1148,32.1956,327.9164,0,U,53175,999,2291,.14835E-4,-.52E-6,0
STARLINK-4294,2022-083AW,2022-12-15T04:06:37.755648,15.08849569,.0002084,53.2187,48.6650,37.1756,322.9380,0,U,53176,999,2398,.29203E-3,.4364E-4,0
STARLINK-4298,2022-083AX,2022-12-14T20:42:49.851072,15.08833124,.0001449,53.2171,40.0537,70.7271,289.3878,0,U,53177,999,2343,.11154E-5,-.27E-5,0
STARLINK-4280,2022-083AY,2022-12-15T03:39:26.078688,15.08854119,.0002884,53.2170,63.7531,27.6302,332.4843,0,U,53178,999,2375,.23368E-3,.3434E-4,0
STARLINK-4276,2022-083AZ,2022-12-15T06:00:00.999648,15.35293428,.0001917,53.2175,23.9138,29.2902,25.2293,0,U,53179,999,2433,-.35977E-1,-.1141259E-1,0
STARLINK-4258,2022-083BA,2022-12-14T22:00:00.999936,15.34515001,.0001606,53.2168,25.5465,37.0980,296.3132,0,U,53180,999,130,-.37724E-1,-.1164773E-1,0
STARLINK-4273,2022-083BB,2022-12-14T22:00:00.999936,15.34734122,.0001508,53.2168,25.5344,43.1596,296.5733,0,U,53181,999,130,-.37258E-1,-.115902E-1,0
STARLINK-4268,2022-083BD,2022-12-14T22:00:00.999936,15.08823946,.0001884,53.2146,29.8147,43.4308,183.0477,0,U,53183,999,130,.21253E-3,.3094E-4,0
STARLINK-4257,2022-083BE,2022-12-15T06:00:00.999648,15.35602515,.0001652,53.2175,23.9240,38.0250,24.3638,0,U,53184,999,2433,-.35625E-1,-.1141327E-1,0
STARLINK-4391,2022-084A,2022-12-15T05:37:17.014944,15.01340092,.0001715,97.6546,47.9463,57.5882,302.5508,0,U,53189,999,2259,-.13634E-2,-.17564E-3,0
STARLINK-4332,2022-084B,2022-12-15T04:44:19.860576,15.01267624,.000163,97.6558,47.8772,83.3060,276.8350,0,U,53190,999,2258,.13805E-3,.1715E-4,0
STARLINK-4369,2022-084C,2022-12-14T16:41:28.333248,15.01262788,.0002176,97.6539,47.3848,56.7456,303.3977,0,U,53191,999,2212,.64381E-4,.768E-5,0
STARLINK-4375,2022-084D,2022-12-15T05:26:38.383296,15.01267953,.0001773,97.6546,47.9090,84.0841,276.0585,0,U,53192,999,2258,.10724E-3,.1319E-4,0
STARLINK-4351,2022-084E,2022-12-15T05:34:38.705088,15.01256290,.0001812,97.6547,47.9242,59.3799,300.7604,0,U,53193,999,2259,-.20199E-5,-.85E-6,0
STARLINK-4382,2022-084F,2022-12-14T16:44:08.195712,15.01262560,.0002073,97.6545,47.3926,57.4157,302.7267,0,U,53194,999,2212,.22172E-3,.279E-4,0
STARLINK-4404,2022-084G,2022-12-15T04:50:29.112576,15.00457106,.0000714,97.6563,47.9612,1.7950,358.3276,0,U,53195,999,2258,.29085E-4,.307E-5,0
STARLINK-4407,2022-084H,2022-12-14T18:15:08.092512,15.01267769,.0001984,97.6553,47.4508,66.1523,293.9909,0,U,53196,999,2279,-.74311E-4,-.1014E-4,0
STARLINK-4403,2022-084J,2022-12-15T05:18:38.703456,15.01259360,.0001838,97.6566,47.9026,98.4895,261.6538,0,U,53197,999,2258,.3746E-4,.422E-5,0
STARLINK-4385,2022-084K,2022-12-14T16:36:07.989696,15.01266841,.000174,97.6568,47.3816,97.3240,262.8182,0,U,53198,999,2278,.15726E-3,.1962E-4,0
STARLINK-4395,2022-084L,2022-12-14T16:28:08.850720,15.01262131,.0001871,97.6561,47.3764,107.0710,253.0719,0,U,53199,999,2212,-.2116E-4,-.331E-5,0
STARLINK-4417,2022-084M,2022-12-14T18:09:26.542944,15.01271551,.0001615,97.6565,47.4446,80.4759,279.6648,0,U,53200,999,2279,.29243E-4,.317E-5,0
STARLINK-4405,2022-084N,2022-12-15T03:34:39.728352,15.01259691,.0001747,97.6555,47.8302,102.0425,258.0995,0,U,53201,999,2257,.16383E-3,.2046E-4,0
