STARLINK-4117           
1 53169U 22083AP  22349.19335649 -.00000748  00000+0 -28870-4 0  9998
2 53169  53.2152  48.5700 0002141  39.2782 320.8365 15.08835494 23983
STARLINK-4299           
1 53172U 22083AS  22349.18875494  .00001917  00000+0  13852-3 0  9998
2 53172  53.2180  58.5900 0001963  35.6139 324.4984 15.08839576 23845
STARLINK-4300           
1 53173U 22083AT  22349.13539429  .00001180  00000+0  92219-4 0  9996
2 53173  53.2161  38.8331 0001476  62.8022 297.3120 15.08826753 24110
STARLINK-4292           
1 53175U 22083AV  22348.62889729 -.00000052  00000+0  14835-4 0  9998
2 53175  53.2187  76.1148 0002102  32.1956 327.9164 15.08832414 22919
STARLINK-4294           
1 53176U 22083AW  22349.17127032  .00004364  00000+0  29203-3 0  9995
2 53176  53.2187  48.6650 0002084  37.1756 322.9380 15.08849569 23986
STARLINK-4298           
1 53177U 22083AX  22348.86307698 -.00000270  00000+0  11154-5 0  9990
2 53177  53.2171  40.0537 0001449  70.7271 289.3878 15.08833124 23437
STARLINK-4280           
1 53178U 22083AY  22349.15238517  .00003434  00000+0  23368-3 0  9999
2 53178  53.2170  63.7531 0002884  27.6302 332.4843 15.08854119 23757
STARLINK-4276           
1 53179U 22083AZ  22349.25001157 -.01141259  00000+0 -35977-1 0  9997
2 53179  53.2175  23.9138 0001917  29.2902  25.2293 15.35293428 24335
STARLINK-4258           
1 53180U 22083BA  22348.91667824 -.01164773  00000+0 -37724-1 0  9998
2 53180  53.2168  25.5465 0001606  37.0980 296.3132 15.34515001  1306
STARLINK-4273           
1 53181U 22083BB  22348.91667824 -.01159020  00000+0 -37258-1 0  9990
2 53181  53.2168  25.5344 0001508  43.1596 296.5733 15.34734122  1301
STARLINK-4268           
1 53183U 22083BD  22348.91667824  .00003094  00000+0  21253-3 0  9998
2 53183  53.2146  29.8147 0001884  43.4308 183.0477 15.08823946  1307
STARLINK-4257           
1 53184U 22083BE  22349.25001157 -.01141327  00000+0 -35625-1 0  9999
2 53184  53.2175  23.9240 0001652  38.0250  24.3638 15.35602515 24339
STARLINK-4391           
1 53189U 22084A   22349.23422471 -.00017564  00000+0 -13634-2 0  9990
2 53189  97.6546  47.9463 0001715  57.5882 302.5508 15.01340092 22593
STARLINK-4332           
1 53190U 22084B   22349.19745209  .00001715  00000+0  13805-3 0  9994
2 53190  97.6558  47.8772 0001630  83.3060 276.8350 15.01267624 22587
STARLINK-4369           
1 53191U 22084C   22348.69546682  .00000768  00000+0  64381-4 0  9996
2 53191  97.6539  47.3848 0002176  56.7456 303.3977 15.01262788 22122
STARLINK-4375           
1 53192U 22084D   22349.22683314  .00001319  00000+0  10724-3 0  9995
2 53192  97.6546  47.9090 0001773  84.0841 276.0585 15.01267953 22580
STARLINK-4351           
1 53193U 22084E   22349.23239242 -.00000085  00000+0 -20199-5 0  9994
2 53193  97.6547  47.9242 0001812  59.3799 300.7604 15.01256290 22592
STARLINK-4382           
1 53194U 22084F   22348.69731708  .00002790  00000+0  22172-3 0  9992
2 53194  97.6545  47.3926 0002073  57.4157 302.7267 15.01262560 22124
STARLINK-4404           
1 53195U 22084G   22349.20172584  .00000307  00000+0  29085-4 0  9995
2 53195  97.6563  47.9612 0000714   1.7950 358.3276 15.00457106 22584
STARLINK-4407           
1 53196U 22084H   22348.76051033 -.00001014  00000+0 -74311-4 0  9991
2 53196  97.6553  47.4508 0001984  66.1523 293.9909 15.01267769 22799
STARLINK-4403           
1 53197U 22084J   22349.22128129  .00000422  00000+0  37460-4 0  9999
2 53197  97.6566  47.9026 0001838  98.4895 261.6538 15.01259360 22587
STARLINK-4385           
1 53198U 22084K   22348.69175914  .00001962  00000+0  15726-3 0  9994
2 53198  97.6568  47.3816 0001740  97.3240 262.8182 15.01266841 22787
STARLINK-4395           
1 53199U 22084L   22348.68621355 -.00000331  00000+0 -21160-4 0  9990
2 53199  97.6561  47.3764 0001871 107.0710 253.0719 15.01262131 22123
STARLINK-4417           
1 53200U 22084M   22348.75655721  .00000317  00000+0  29243-4 0  9997
2 53200  97.6565  47.4446 0001615  80.4759 279.6648 15.01271551 22795
STARLINK-4405           
1 53201U 22084N   22349.14907093  .00002046  00000+0  16383-3 0  9995
2 53201  97.6555  47.8302 0001747 102.0425 258.0995 15.01259691 22570
